CSS (TIANHE)            
1 48274U 21035A   23218.36024613  .00014255  00000+0  17039-3 0  9996
2 48274  41.4734 210.9840 0006762  93.9779 266.1833 15.60698587129678
